[{"CCSDS_OMM_VERS":"2.0","COMMENT":"GENERATED VIA SPACE-TRACK.ORG API","CREATION_DATE":"2020-07-03T21:46:09","ORIGINATOR":"18 SPCS","OBJECT_NAME":"STARLINK-1098","OBJECT_ID":"2020-001D","CENTER_NAME":"EARTH","REF_FRAME":"TEME","TIME_SYSTEM":"UTC","MEAN_ELEMENT_THEORY":"SGP4","EPOCH":"2020-07-03T20:00:01.000224","MEAN_MOTION":"15.05569911","ECCENTRICITY":"0.00014300","INCLINATION":"53.0002","RA_OF_ASC_NODE":"301.0086","ARG_OF_PERICENTER":"101.3393","MEAN_ANOMALY":"53.0522","EPHEMERIS_TYPE":"0","CLASSIFICATION_TYPE":"U","NORAD_CAT_ID":"44917","ELEMENT_SET_NO":"999","REV_AT_EPOCH":"2713","BSTAR":"0.00153590000000","MEAN_MOTION_DOT":"0.00022163","MEAN_MOTION_DDOT":"0.0000000000000","SEMIMAJOR_AXIS":"6927.893","PERIOD":"95.644","APOAPSIS":"550.749","PERIAPSIS":"548.768","OBJECT_TYPE":"PAYLOAD","RCS_SIZE":"LARGE","COUNTRY_CODE":"US","LAUNCH_DATE":"2020-01-07","SITE":"AFETR","DECAY_DATE":null,"FILE":"2778404","GP_ID":"156861885","TLE_LINE0":"0 STARLINK-1098","TLE_LINE1":"1 44917U 20001D   20185.83334491  .00022163  00000-0  15359-2 0  9998","TLE_LINE2":"2 44917  53.0002 301.0086 0001430 101.3393  53.0522 15.05569911 27135"},{"CCSDS_OMM_VERS":"2.0","COMMENT":"GENERATED VIA SPACE-TRACK.ORG API","CREATION_DATE":"2020-07-03T21:36:09","ORIGINATOR":"18 SPCS","OBJECT_NAME":"STARLINK-1098","OBJECT_ID":"2020-001D","CENTER_NAME":"EARTH","REF_FRAME":"TEME","TIME_SYSTEM":"UTC","MEAN_ELEMENT_THEORY":"SGP4","EPOCH":"2020-07-03T20:00:01.000224","MEAN_MOTION":"15.05569911","ECCENTRICITY":"0.00014300","INCLINATION":"53.0002","RA_OF_ASC_NODE":"301.0086","ARG_OF_PERICENTER":"101.3393","MEAN_ANOMALY":"53.0522","EPHEMERIS_TYPE":"0","CLASSIFICATION_TYPE":"U","NORAD_CAT_ID":"44917","ELEMENT_SET_NO":"999","REV_AT_EPOCH":"2713","BSTAR":"0.00153590000000","MEAN_MOTION_DOT":"0.00022163","MEAN_MOTION_DDOT":"0.0000000000000","SEMIMAJOR_AXIS":"6927.893","PERIOD":"95.644","APOAPSIS":"550.749","PERIAPSIS":"548.768","OBJECT_TYPE":"PAYLOAD","RCS_SIZE":"LARGE","COUNTRY_CODE":"US","LAUNCH_DATE":"2020-01-07","SITE":"AFETR","DECAY_DATE":null,"FILE":"2778390","GP_ID":"156861769","TLE_LINE0":"0 STARLINK-1098","TLE_LINE1":"1 44917U 20001D   20185.83334491  .00022163  00000-0  15359-2 0  9998","TLE_LINE2":"2 44917  53.0002 301.0086 0001430 101.3393  53.0522 15.05569911 27135"},{"CCSDS_OMM_VERS":"2.0","COMMENT":"GENERATED VIA SPACE-TRACK.ORG API","CREATION_DATE":"2020-07-04T02:24:26","ORIGINATOR":"18 SPCS","OBJECT_NAME":"STARLINK-1098","OBJECT_ID":"2020-001D","CENTER_NAME":"EARTH","REF_FRAME":"TEME","TIME_SYSTEM":"UTC","MEAN_ELEMENT_THEORY":"SGP4","EPOCH":"2020-07-03T22:00:00.999936","MEAN_MOTION":"15.05594279","ECCENTRICITY":"0.00014360","INCLINATION":"53.0004","RA_OF_ASC_NODE":"300.6340","ARG_OF_PERICENTER":"103.6711","MEAN_ANOMALY":"142.6386","EPHEMERIS_TYPE":"0","CLASSIFICATION_TYPE":"U","NORAD_CAT_ID":"44917","ELEMENT_SET_NO":"999","REV_AT_EPOCH":"175","BSTAR":"-0.00181970000000","MEAN_MOTION_DOT":"-0.00026703","MEAN_MOTION_DDOT":"0.0000000000000","SEMIMAJOR_AXIS":"6927.819","PERIOD":"95.643","APOAPSIS":"550.678","PERIAPSIS":"548.689","OBJECT_TYPE":"PAYLOAD","RCS_SIZE":"LARGE","COUNTRY_CODE":"US","LAUNCH_DATE":"2020-01-07","SITE":"AFETR","DECAY_DATE":null,"FILE":"2778567","GP_ID":"156885136","TLE_LINE0":"0 STARLINK-1098","TLE_LINE1":"1 44917U 20001D   20185.91667824 -.00026703 +00000-0 -18197-2 0  9995","TLE_LINE2":"2 44917 053.0004 300.6340 0001436 103.6711 142.6386 15.05594279001758"},{"CCSDS_OMM_VERS":"2.0","COMMENT":"GENERATED VIA SPACE-TRACK.ORG API","CREATION_DATE":"2020-07-04T02:06:09","ORIGINATOR":"18 SPCS","OBJECT_NAME":"STARLINK-1098","OBJECT_ID":"2020-001D","CENTER_NAME":"EARTH","REF_FRAME":"TEME","TIME_SYSTEM":"UTC","MEAN_ELEMENT_THEORY":"SGP4","EPOCH":"2020-07-04T00:00:00.999648","MEAN_MOTION":"15.05596558","ECCENTRICITY":"0.00014440","INCLINATION":"53.0005","RA_OF_ASC_NODE":"300.2594","ARG_OF_PERICENTER":"106.2232","MEAN_ANOMALY":"232.0127","EPHEMERIS_TYPE":"0","CLASSIFICATION_TYPE":"U","NORAD_CAT_ID":"44917","ELEMENT_SET_NO":"999","REV_AT_EPOCH":"2715","BSTAR":"-0.00252040000000","MEAN_MOTION_DOT":"-0.00036828","MEAN_MOTION_DDOT":"0.0000000000000","SEMIMAJOR_AXIS":"6927.812","PERIOD":"95.643","APOAPSIS":"550.677","PERIAPSIS":"548.676","OBJECT_TYPE":"PAYLOAD","RCS_SIZE":"LARGE","COUNTRY_CODE":"US","LAUNCH_DATE":"2020-01-07","SITE":"AFETR","DECAY_DATE":null,"FILE":"2778548","GP_ID":"156865297","TLE_LINE0":"0 STARLINK-1098","TLE_LINE1":"1 44917U 20001D   20186.00001157 -.00036828  00000-0 -25204-2 0  9993","TLE_LINE2":"2 44917  53.0005 300.2594 0001444 106.2232 232.0127 15.05596558 27153"},{"CCSDS_OMM_VERS":"2.0","COMMENT":"GENERATED VIA SPACE-TRACK.ORG API","CREATION_DATE":"2020-07-04T05:46:09","ORIGINATOR":"18 SPCS","OBJECT_NAME":"STARLINK-1098","OBJECT_ID":"2020-001D","CENTER_NAME":"EARTH","REF_FRAME":"TEME","TIME_SYSTEM":"UTC","MEAN_ELEMENT_THEORY":"SGP4","EPOCH":"2020-07-04T04:00:00.999936","MEAN_MOTION":"15.05561299","ECCENTRICITY":"0.00014570","INCLINATION":"53.0006","RA_OF_ASC_NODE":"299.5106","ARG_OF_PERICENTER":"111.6395","MEAN_ANOMALY":"50.4587","EPHEMERIS_TYPE":"0","CLASSIFICATION_TYPE":"U","NORAD_CAT_ID":"44917","ELEMENT_SET_NO":"999","REV_AT_EPOCH":"2718","BSTAR":"0.00243990000000","MEAN_MOTION_DOT":"0.00035431","MEAN_MOTION_DDOT":"0.0000000000000","SEMIMAJOR_AXIS":"6927.920","PERIOD":"95.645","APOAPSIS":"550.794","PERIAPSIS":"548.775","OBJECT_TYPE":"PAYLOAD","RCS_SIZE":"LARGE","COUNTRY_CODE":"US","LAUNCH_DATE":"2020-01-07","SITE":"AFETR","DECAY_DATE":null,"FILE":"2778579","GP_ID":"156886009","TLE_LINE0":"0 STARLINK-1098","TLE_LINE1":"1 44917U 20001D   20186.16667824  .00035431  00000-0  24399-2 0  9990","TLE_LINE2":"2 44917  53.0006 299.5106 0001457 111.6395  50.4587 15.05561299 27186"},{"CCSDS_OMM_VERS":"2.0","COMMENT":"GENERATED VIA SPACE-TRACK.ORG API","CREATION_DATE":"2020-07-04T11:56:09","ORIGINATOR":"18 SPCS","OBJECT_NAME":"STARLINK-1098","OBJECT_ID":"2020-001D","CENTER_NAME":"EARTH","REF_FRAME":"TEME","TIME_SYSTEM":"UTC","MEAN_ELEMENT_THEORY":"SGP4","EPOCH":"2020-07-04T10:00:00.999936","MEAN_MOTION":"15.05598766","ECCENTRICITY":"0.00015200","INCLINATION":"53.0007","RA_OF_ASC_NODE":"298.3890","ARG_OF_PERICENTER":"111.2619","MEAN_ANOMALY":"326.5977","EPHEMERIS_TYPE":"0","CLASSIFICATION_TYPE":"U","NORAD_CAT_ID":"44917","ELEMENT_SET_NO":"999","REV_AT_EPOCH":"2722","BSTAR":"-0.00179950000000","MEAN_MOTION_DOT":"-0.00026414","MEAN_MOTION_DDOT":"0.0000000000000","SEMIMAJOR_AXIS":"6927.805","PERIOD":"95.643","APOAPSIS":"550.723","PERIAPSIS":"548.617","OBJECT_TYPE":"PAYLOAD","RCS_SIZE":"LARGE","COUNTRY_CODE":"US","LAUNCH_DATE":"2020-01-07","SITE":"AFETR","DECAY_DATE":null,"FILE":"2778825","GP_ID":"156891397","TLE_LINE0":"0 STARLINK-1098","TLE_LINE1":"1 44917U 20001D   20186.41667824 -.00026414  00000-0 -17995-2 0  9995","TLE_LINE2":"2 44917  53.0007 298.3890 0001520 111.2619 326.5977 15.05598766 27224"},{"CCSDS_OMM_VERS":"2.0","COMMENT":"GENERATED VIA SPACE-TRACK.ORG API","CREATION_DATE":"2020-07-04T13:26:08","ORIGINATOR":"18 SPCS","OBJECT_NAME":"STARLINK-1098","OBJECT_ID":"2020-001D","CENTER_NAME":"EARTH","REF_FRAME":"TEME","TIME_SYSTEM":"UTC","MEAN_ELEMENT_THEORY":"SGP4","EPOCH":"2020-07-04T12:00:00.999648","MEAN_MOTION":"15.05596071","ECCENTRICITY":"0.00014910","INCLINATION":"53.0007","RA_OF_ASC_NODE":"298.0154","ARG_OF_PERICENTER":"108.6487","MEAN_ANOMALY":"61.1406","EPHEMERIS_TYPE":"0","CLASSIFICATION_TYPE":"U","NORAD_CAT_ID":"44917","ELEMENT_SET_NO":"999","REV_AT_EPOCH":"2723","BSTAR":"-0.00209260000000","MEAN_MOTION_DOT":"-0.00030650","MEAN_MOTION_DDOT":"0.0000000000000","SEMIMAJOR_AXIS":"6927.813","PERIOD":"95.643","APOAPSIS":"550.711","PERIAPSIS":"548.645","OBJECT_TYPE":"PAYLOAD","RCS_SIZE":"LARGE","COUNTRY_CODE":"US","LAUNCH_DATE":"2020-01-07","SITE":"AFETR","DECAY_DATE":null,"FILE":"2778853","GP_ID":"156891921","TLE_LINE0":"0 STARLINK-1098","TLE_LINE1":"1 44917U 20001D   20186.50001157 -.00030650  00000-0 -20926-2 0  9991","TLE_LINE2":"2 44917  53.0007 298.0154 0001491 108.6487  61.1406 15.05596071 27231"},{"CCSDS_OMM_VERS":"2.0","COMMENT":"GENERATED VIA SPACE-TRACK.ORG API","CREATION_DATE":"2020-07-04T17:33:47","ORIGINATOR":"18 SPCS","OBJECT_NAME":"STARLINK-1098","OBJECT_ID":"2020-001D","CENTER_NAME":"EARTH","REF_FRAME":"TEME","TIME_SYSTEM":"UTC","MEAN_ELEMENT_THEORY":"SGP4","EPOCH":"2020-07-04T14:00:01.000224","MEAN_MOTION":"15.05585442","ECCENTRICITY":"0.00014570","INCLINATION":"53.0006","RA_OF_ASC_NODE":"297.6417","ARG_OF_PERICENTER":"106.0131","MEAN_ANOMALY":"155.7066","EPHEMERIS_TYPE":"0","CLASSIFICATION_TYPE":"U","NORAD_CAT_ID":"44917","ELEMENT_SET_NO":"999","REV_AT_EPOCH":"175","BSTAR":"-0.00101250000000","MEAN_MOTION_DOT":"-0.00015003","MEAN_MOTION_DDOT":"0.0000000000000","SEMIMAJOR_AXIS":"6927.846","PERIOD":"95.643","APOAPSIS":"550.720","PERIAPSIS":"548.701","OBJECT_TYPE":"PAYLOAD","RCS_SIZE":"LARGE","COUNTRY_CODE":"US","LAUNCH_DATE":"2020-01-07","SITE":"AFETR","DECAY_DATE":null,"FILE":"2779030","GP_ID":"156914237","TLE_LINE0":"0 STARLINK-1098","TLE_LINE1":"1 44917U 20001D   20186.58334491 -.00015003 +00000-0 -10125-2 0  9994","TLE_LINE2":"2 44917 053.0006 297.6417 0001457 106.0131 155.7066 15.05585442001758"}]